[{"OBJECT_NAME":"HADES-ICM","OBJECT_ID":"2025-052BN","EPOCH":"2026-03-09T16:44:43.821024","MEAN_MOTION":15.5687434,"ECCENTRICITY":0.00089133,"INCLINATION":97.3947,"RA_OF_ASC_NODE":329.1452,"ARG_OF_PERICENTER":110.6367,"MEAN_ANOMALY":249.5845,"EPHEMERIS_TYPE":0,"CLASSIFICATION_TYPE":"U","NORAD_CAT_ID":63492,"ELEMENT_SET_NO":999,"REV_AT_EPOCH":5514,"BSTAR":0.0018517486,"MEAN_MOTION_DOT":0.00135148,"MEAN_MOTION_DDOT":0},{"OBJECT_NAME":"STARLINK-36411","OBJECT_ID":"2026-018V","EPOCH":"2026-03-09T22:00:01.999584","MEAN_MOTION":15.67971657,"ECCENTRICITY":0.00018908,"INCLINATION":97.2839,"RA_OF_ASC_NODE":134.8178,"ARG_OF_PERICENTER":74.0997,"MEAN_ANOMALY":109.8922,"EPHEMERIS_TYPE":0,"CLASSIFICATION_TYPE":"U","NORAD_CAT_ID":67608,"ELEMENT_SET_NO":999,"REV_AT_EPOCH":604,"BSTAR":-0.020003062,"MEAN_MOTION_DOT":-0.01951575,"MEAN_MOTION_DDOT":0}]
